start=new Date('2023-05-10T00:00:00.000Z').valueOf();
sats=[{"NORAD_CAT_ID":"45734","RA_OF_ASC_NODE":"196.7329","COUNTRY_CODE":"US","MEAN_MOTION":"15.14799092","REF_FRAME":"TEME","MEAN_MOTION_DDOT":"0.0000000000000","APOAPSIS":"522.517","ARG_OF_PERICENTER":"56.5312","DECAY_DATE":null,"REV_AT_EPOCH":"16026","SITE":"AFETR","LAUNCH_DATE":"2020-06-13","PERIOD":"95.062","EPOCH":"2023-05-09T10:51:25.407360","TLE_LINE1":"1 45734U 20038E   23129.45237740  .00041433  00000-0  22090-2 0  9995","GP_ID":"231503692","OBJECT_NAME":"STARLINK-1468","PERIAPSIS":"520.664","TLE_LINE2":"2 45734  53.0517 196.7329 0001343  56.5312 303.5809 15.14799092160266","CLASSIFICATION_TYPE":"U","INCLINATION":"53.0517","ELEMENT_SET_NO":"999","OBJECT_TYPE":"PAYLOAD","OBJECT_ID":"2020-038E","FILE":"3904553","ECCENTRICITY":"0.00013430","EPHEMERIS_TYPE":"0","RCS_SIZE":"LARGE","CENTER_NAME":"EARTH","MEAN_ELEMENT_THEORY":"SGP4","BSTAR":"0.00220900000000","TIME_SYSTEM":"UTC","MEAN_MOTION_DOT":"0.00041433","SEMIMAJOR_AXIS":"6899.726","MEAN_ANOMALY":"303.5809"},{"MEAN_MOTION_DDOT":"0.0000000000000","APOAPSIS":"548.148","DECAY_DATE":null,"REV_AT_EPOCH":"16016","SITE":"AFETR","ARG_OF_PERICENTER":"99.2415","RA_OF_ASC_NODE":"203.6788","COUNTRY_CODE":"US","NORAD_CAT_ID":"45735","MEAN_MOTION":"15.06421916","REF_FRAME":"TEME","TLE_LINE1":"1 45735U 20038F   23129.51904043  .00025917  00000-0  17514-2 0  9994","GP_ID":"231503942","OBJECT_NAME":"STARLINK-1471","LAUNCH_DATE":"2020-06-13","PERIOD":"95.591","EPOCH":"2023-05-09T12:27:25.093152","FILE":"3904553","ECCENTRICITY":"0.00014460","OBJECT_ID":"2020-038F","EPHEMERIS_TYPE":"0","CLASSIFICATION_TYPE":"U","INCLINATION":"53.0522","ELEMENT_SET_NO":"999","PERIAPSIS":"546.145","TLE_LINE2":"2 45735  53.0522 203.6788 0001446  99.2415 260.8737 15.06421916160164","OBJECT_TYPE":"PAYLOAD","SEMIMAJOR_AXIS":"6925.281","MEAN_MOTION_DOT":"0.00025917","MEAN_ANOMALY":"260.8737","RCS_SIZE":"LARGE","MEAN_ELEMENT_THEORY":"SGP4","BSTAR":"0.00175140000000","TIME_SYSTEM":"UTC","CENTER_NAME":"EARTH"},{"RA_OF_ASC_NODE":"89.2284","COUNTRY_CODE":"US","NORAD_CAT_ID":"45736","MEAN_MOTION":"15.54661007","REF_FRAME":"TEME","MEAN_MOTION_DDOT":"0.0000000000000","APOAPSIS":"405.216","REV_AT_EPOCH":"16179","DECAY_DATE":null,"SITE":"AFETR","ARG_OF_PERICENTER":"23.4030","LAUNCH_DATE":"2020-06-13","PERIOD":"92.625","EPOCH":"2023-05-09T11:59:43.575360","GP_ID":"231504680","TLE_LINE1":"1 45736U 20038G   23129.49980990  .00047561  00000-0  70835-3 0  9992","OBJECT_NAME":"STARLINK-1472","INCLINATION":"53.0562","CLASSIFICATION_TYPE":"U","ELEMENT_SET_NO":"999","PERIAPSIS":"401.064","TLE_LINE2":"2 45736  53.0562  89.2284 0003061  23.4030 336.7119 15.54661007161792","OBJECT_TYPE":"PAYLOAD","OBJECT_ID":"2020-038G","FILE":"3904553","ECCENTRICITY":"0.00030610","EPHEMERIS_TYPE":"0","RCS_SIZE":"LARGE","MEAN_ELEMENT_THEORY":"SGP4","TIME_SYSTEM":"UTC","BSTAR":"0.00070835000000","CENTER_NAME":"EARTH","SEMIMAJOR_AXIS":"6781.275","MEAN_MOTION_DOT":"0.00047561","MEAN_ANOMALY":"336.7119"},{"MEAN_ANOMALY":"290.7121","SEMIMAJOR_AXIS":"6925.307","MEAN_MOTION_DOT":"0.00019105","TIME_SYSTEM":"UTC","BSTAR":"0.00129750000000","MEAN_ELEMENT_THEORY":"SGP4","CENTER_NAME":"EARTH","RCS_SIZE":"LARGE","EPHEMERIS_TYPE":"0","ECCENTRICITY":"0.00012170","FILE":"3904553","OBJECT_ID":"2020-038J","OBJECT_TYPE":"PAYLOAD","ELEMENT_SET_NO":"999","INCLINATION":"53.0520","CLASSIFICATION_TYPE":"U","TLE_LINE2":"2 45738  53.0520 204.0210 0001217  69.3998 290.7121 15.06413559160152","PERIAPSIS":"546.329","OBJECT_NAME":"STARLINK-1474","TLE_LINE1":"1 45738U 20038J   23129.44164015  .00019105  00000-0  12975-2 0  9994","GP_ID":"231503441","EPOCH":"2023-05-09T10:35:57.708960","PERIOD":"95.591","LAUNCH_DATE":"2020-06-13","SITE":"AFETR","REV_AT_EPOCH":"16015","DECAY_DATE":null,"ARG_OF_PERICENTER":"69.3998","APOAPSIS":"548.015","MEAN_MOTION_DDOT":"0.0000000000000","REF_FRAME":"TEME","MEAN_MOTION":"15.06413559","COUNTRY_CODE":"US","RA_OF_ASC_NODE":"204.0210","NORAD_CAT_ID":"45738"},{"RCS_SIZE":"LARGE","BSTAR":"0.00032025000000","TIME_SYSTEM":"UTC","MEAN_ELEMENT_THEORY":"SGP4","CENTER_NAME":"EARTH","SEMIMAJOR_AXIS":"6925.331","MEAN_MOTION_DOT":"0.00004493","MEAN_ANOMALY":"277.5769","ELEMENT_SET_NO":"999","CLASSIFICATION_TYPE":"U","INCLINATION":"53.0518","TLE_LINE2":"2 45739  53.0518 164.5471 0001246  82.5361 277.5769 15.06405651160696","PERIAPSIS":"546.333","OBJECT_TYPE":"PAYLOAD","FILE":"3904553","OBJECT_ID":"2020-038K","ECCENTRICITY":"0.00012460","EPHEMERIS_TYPE":"0","LAUNCH_DATE":"2020-06-13","EPOCH":"2023-05-09T07:44:44.957184","PERIOD":"95.592","TLE_LINE1":"1 45739U 20038K   23129.32274256  .00004493  00000-0  32025-3 0  9994","GP_ID":"231503193","OBJECT_NAME":"STARLINK-1475","RA_OF_ASC_NODE":"164.5471","COUNTRY_CODE":"US","NORAD_CAT_ID":"45739","REF_FRAME":"TEME","MEAN_MOTION":"15.06405651","MEAN_MOTION_DDOT":"0.0000000000000","APOAPSIS":"548.059","SITE":"AFETR","DECAY_DATE":null,"REV_AT_EPOCH":"16069","ARG_OF_PERICENTER":"82.5361"},{"APOAPSIS":"548.137","MEAN_MOTION_DDOT":"0.0000000000000","ARG_OF_PERICENTER":"93.3409","SITE":"AFETR","DECAY_DATE":null,"REV_AT_EPOCH":"16016","NORAD_CAT_ID":"45740","COUNTRY_CODE":"US","RA_OF_ASC_NODE":"203.6979","REF_FRAME":"TEME","MEAN_MOTION":"15.06398119","GP_ID":"231504443","TLE_LINE1":"1 45740U 20038L   23129.51536571  .00018694  00000-0  12706-2 0  9999","OBJECT_NAME":"STARLINK-1479","LAUNCH_DATE":"2020-06-13","EPOCH":"2023-05-09T12:22:07.597344","PERIOD":"95.592","OBJECT_ID":"2020-038L","FILE":"3904553","ECCENTRICITY":"0.00013250","EPHEMERIS_TYPE":"0","TLE_LINE2":"2 45740  53.0533 203.6979 0001325  93.3409 266.7731 15.06398119160165","PERIAPSIS":"546.302","ELEMENT_SET_NO":"999","CLASSIFICATION_TYPE":"U","INCLINATION":"53.0533","OBJECT_TYPE":"PAYLOAD","MEAN_MOTION_DOT":"0.00018694","SEMIMAJOR_AXIS":"6925.354","MEAN_ANOMALY":"266.7731","RCS_SIZE":"LARGE","CENTER_NAME":"EARTH","BSTAR":"0.00127060000000","TIME_SYSTEM":"UTC","MEAN_ELEMENT_THEORY":"SGP4"},{"APOAPSIS":"547.741","MEAN_MOTION_DDOT":"0.0000000000000","ARG_OF_PERICENTER":"86.9872","REV_AT_EPOCH":"16128","DECAY_DATE":null,"SITE":"AFETR","NORAD_CAT_ID":"45741","COUNTRY_CODE":"US","RA_OF_ASC_NODE":"203.8333","MEAN_MOTION":"15.06438360","REF_FRAME":"TEME","TLE_LINE1":"1 45741U 20038M   23129.48588656  .00021679  00000-0  14683-2 0  9990","GP_ID":"231504180","OBJECT_NAME":"STARLINK-1480","LAUNCH_DATE":"2020-06-13","PERIOD":"95.590","EPOCH":"2023-05-09T11:39:40.598784","FILE":"3904553","ECCENTRICITY":"0.00009310","OBJECT_ID":"2020-038M","EPHEMERIS_TYPE":"0","PERIAPSIS":"546.451","TLE_LINE2":"2 45741  53.0523 203.8333 0000931  86.9872 273.1223 15.06438360161280","INCLINATION":"53.0523","CLASSIFICATION_TYPE":"U","ELEMENT_SET_NO":"999","OBJECT_TYPE":"PAYLOAD","MEAN_MOTION_DOT":"0.00021679","SEMIMAJOR_AXIS":"6925.231","MEAN_ANOMALY":"273.1223","RCS_SIZE":"LARGE","CENTER_NAME":"EARTH","MEAN_ELEMENT_THEORY":"SGP4","BSTAR":"0.00146830000000","TIME_SYSTEM":"UTC"},{"EPOCH":"2023-05-09T11:29:02.108832","PERIOD":"95.591","LAUNCH_DATE":"2020-06-13","OBJECT_NAME":"STARLINK-1481","GP_ID":"231502942","TLE_LINE1":"1 45742U 20038N   23129.47849663  .00027940  00000-0  18861-2 0  9997","REF_FRAME":"TEME","MEAN_MOTION":"15.06420979","NORAD_CAT_ID":"45742","RA_OF_ASC_NODE":"203.8626","COUNTRY_CODE":"US","ARG_OF_PERICENTER":"93.1446","SITE":"AFETR","REV_AT_EPOCH":"16015","DECAY_DATE":null,"MEAN_MOTION_DDOT":"0.0000000000000","APOAPSIS":"548.151","CENTER_NAME":"EARTH","TIME_SYSTEM":"UTC","BSTAR":"0.00188610000000","MEAN_ELEMENT_THEORY":"SGP4","RCS_SIZE":"LARGE","MEAN_ANOMALY":"266.9709","MEAN_MOTION_DOT":"0.00027940","SEMIMAJOR_AXIS":"6925.284","OBJECT_TYPE":"PAYLOAD","TLE_LINE2":"2 45742  53.0528 203.8626 0001447  93.1446 266.9709 15.06420979160152","PERIAPSIS":"546.147","ELEMENT_SET_NO":"999","INCLINATION":"53.0528","CLASSIFICATION_TYPE":"U","EPHEMERIS_TYPE":"0","FILE":"3904553","ECCENTRICITY":"0.00014470","OBJECT_ID":"2020-038N"},{"EPHEMERIS_TYPE":"0","FILE":"3904553","OBJECT_ID":"2020-038P","ECCENTRICITY":"0.00011690","OBJECT_TYPE":"PAYLOAD","ELEMENT_SET_NO":"999","CLASSIFICATION_TYPE":"U","INCLINATION":"53.0519","TLE_LINE2":"2 45743  53.0519 203.7059 0001169  81.4610 278.6512 15.06412398160165","PERIAPSIS":"546.366","MEAN_ANOMALY":"278.6512","SEMIMAJOR_AXIS":"6925.311","MEAN_MOTION_DOT":"0.00015657","BSTAR":"0.00106730000000","TIME_SYSTEM":"UTC","MEAN_ELEMENT_THEORY":"SGP4","CENTER_NAME":"EARTH","RCS_SIZE":"LARGE","SITE":"AFETR","DECAY_DATE":null,"REV_AT_EPOCH":"16016","ARG_OF_PERICENTER":"81.4610","MEAN_MOTION_DDOT":"0.0000000000000","APOAPSIS":"547.985","REF_FRAME":"TEME","MEAN_MOTION":"15.06412398","COUNTRY_CODE":"US","RA_OF_ASC_NODE":"203.7059","NORAD_CAT_ID":"45743","OBJECT_NAME":"STARLINK-1483","TLE_LINE1":"1 45743U 20038P   23129.49597157  .00015657  00000-0  10673-2 0  9993","GP_ID":"231503693","EPOCH":"2023-05-09T11:54:11.943648","PERIOD":"95.591","LAUNCH_DATE":"2020-06-13"},{"TLE_LINE1":"1 45744U 20038Q   23129.46743551  .00029834  00000-0  20121-2 0  9993","GP_ID":"231503943","OBJECT_NAME":"STARLINK-1500","LAUNCH_DATE":"2020-06-13","PERIOD":"95.591","EPOCH":"2023-05-09T11:13:06.428064","APOAPSIS":"548.069","MEAN_MOTION_DDOT":"0.0000000000000","DECAY_DATE":null,"REV_AT_EPOCH":"16016","SITE":"AFETR","ARG_OF_PERICENTER":"81.0992","RA_OF_ASC_NODE":"203.9100","COUNTRY_CODE":"US","NORAD_CAT_ID":"45744","MEAN_MOTION":"15.06422233","REF_FRAME":"TEME","SEMIMAJOR_AXIS":"6925.280","MEAN_MOTION_DOT":"0.00029834","MEAN_ANOMALY":"279.0148","RCS_SIZE":"LARGE","MEAN_ELEMENT_THEORY":"SGP4","BSTAR":"0.00201210000000","TIME_SYSTEM":"UTC","CENTER_NAME":"EARTH","ECCENTRICITY":"0.00013340","FILE":"3904553","OBJECT_ID":"2020-038Q","EPHEMERIS_TYPE":"0","INCLINATION":"53.0522","CLASSIFICATION_TYPE":"U","ELEMENT_SET_NO":"999","PERIAPSIS":"546.222","TLE_LINE2":"2 45744  53.0522 203.9100 0001334  81.0992 279.0148 15.06422233160161","OBJECT_TYPE":"PAYLOAD"}];
